STARLINK-2701
1 18656C 21044U   21326.16981203 -.00001087  00000-0 -72819-4 0  3267
2 18656  53.0551 322.9707 0001679  58.7902 347.4059 15.06407265    13
